[{"OBJECT_NAME":"STARLINK-36464","OBJECT_ID":"2026-005AA","EPOCH":"2026-03-09T12:52:18.173280","MEAN_MOTION":15.27589081,"ECCENTRICITY":0.00017069,"INCLINATION":42.998,"RA_OF_ASC_NODE":238.7871,"ARG_OF_PERICENTER":265.8712,"MEAN_ANOMALY":94.1945,"EPHEMERIS_TYPE":0,"CLASSIFICATION_TYPE":"U","NORAD_CAT_ID":67428,"ELEMENT_SET_NO":999,"REV_AT_EPOCH":866,"BSTAR":0.00090180057,"MEAN_MOTION_DOT":0.00024644,"MEAN_MOTION_DDOT":0},{"OBJECT_NAME":"CZ-4 DEB","OBJECT_ID":"2003-049H","EPOCH":"2026-03-08T08:27:28.944576","MEAN_MOTION":15.27137095,"ECCENTRICITY":0.00307627,"INCLINATION":98.6284,"RA_OF_ASC_NODE":272.5918,"ARG_OF_PERICENTER":169.0311,"MEAN_ANOMALY":191.1601,"EPHEMERIS_TYPE":0,"CLASSIFICATION_TYPE":"U","NORAD_CAT_ID":35381,"ELEMENT_SET_NO":999,"REV_AT_EPOCH":18390,"BSTAR":0.0032047887,"MEAN_MOTION_DOT":0.00087287,"MEAN_MOTION_DDOT":0}]
